MTI                     
1 26102U 00014A   21280.82985187  .00025002  00000-0  26198-3 0  9995
2 26102  97.4582 193.5209 0003384 252.4033 107.6869 15.64395530198897
CFESAT                  
1 30777U 07006F   21280.77168558  .00010513  00000-0  24596-3 0  9996
2 30777  35.4229 136.5560 0005009 237.1145 122.9101 15.41359439810014
SPIRALE A               
1 33751U 09008C   21280.74182906  .00000078  00000-0  37600-3 0  9990
2 33751   2.0015 129.5865 5397627 135.9229 282.9870  4.58804128183205
SPIRALE B               
1 33752U 09008D   21281.20752180  .00002280  00000-0  61672-3 0  9993
2 33752   1.8307 260.9278 6878062 231.6197  43.8372  2.79610471118050
SAPPHIRE                
1 39088U 13009C   21280.52946813 -.00000004  00000-0  13849-4 0  9996
2 39088  98.4398 117.4575 0010542 313.0148  47.0153 14.34252980450886
